NORAD_CAT_ID,OBJECT_NAME,OBJECT_TYPE,EPOCH,MEAN_MOTION,ECCENTRICITY,INCLINATION,RA_OF_ASC_NODE,ARG_OF_PERICENTER,MEAN_ANOMALY,BSTAR,MEAN_MOTION_DOT,MEAN_MOTION_DDOT,TLE_LINE0,TLE_LINE1,TLE_LINE2,SEMIMAJOR_AXIS,PERIOD,APOGEE,PERIGEE,DECAYED
50156.0,STARLINK-3317,PAYLOAD,2022-02-22 04:00:00,15.49409247,0.0001959,53.2176,42.6583,27.6016,23.4358,-0.010093,-0.00527412,0.0,0 STARLINK-3317,1 50156U 21125A   22053.16667824 -.00527412  00000-0 -10093-1 0  9997,2 50156  53.2176  42.6583 0001959  27.6016  23.4358 15.49409247 13135,6796.59,92.939,419.787,417.124,0.0
50156.0,STARLINK-3317,PAYLOAD,2022-02-22 14:00:01,15.48948681,0.0001589,53.2173,40.6692,46.9462,169.1667,-0.010285,-0.00528636,0.0,0 STARLINK-3317,1 50156U 21125A   22053.58334491 -.00528636  00000-0 -10285-1 0  9996,2 50156  53.2173  40.6692 0001589  46.9462 169.1667 15.48948681  3677,6797.937,92.966,420.883,418.722,0.0
50156.0,STARLINK-3317,PAYLOAD,2022-02-22 22:00:00,15.48577838,0.0001689,53.2176,39.0779,40.6203,235.0554,-0.010338,-0.00524732,0.0,0 STARLINK-3317,1 50156U 21125A   22053.91667824 -.00524732  00000-0 -10338-1 0  9994,2 50156  53.2176  39.0779 0001689  40.6203 235.0554 15.48577838  3684,6799.023,92.989,422.036,419.739,0.0
50156.0,STARLINK-3317,PAYLOAD,2022-02-23 06:00:00,15.48210561,0.0001968,53.2175,37.491,29.7235,305.0689,-0.010545,-0.00528171,0.0,0 STARLINK-3317,1 50156U 21125A   22054.25001157 -.00528171  00000-0 -10545-1 0  9994,2 50156  53.2175  37.4910 0001968  29.7235 305.0689 15.48210561 13309,6800.098000000001,93.011,423.301,420.625,0.0
50156.0,STARLINK-3317,PAYLOAD,2022-02-23 14:00:01,15.47840792,0.0001455,53.2173,35.9021,43.0196,350.4485,-0.010643,-0.00526281,0.0,0 STARLINK-3317,1 50156U 21125A   22054.58334491 -.00526281  00000-0 -10643-1 0  9999,2 50156  53.2173  35.9021 0001455  43.0196 350.4485 15.47840792  3692,6801.181,93.033,424.035,422.056,0.0
50156.0,STARLINK-3317,PAYLOAD,2022-02-23 22:00:00,15.47471176,0.0001639,53.2175,34.3136,38.7829,52.9177,-0.010745,-0.00524632,0.0,0 STARLINK-3317,1 50156U 21125A   22054.91667824 -.00524632  00000-0 -10745-1 0  9996,2 50156  53.2175  34.3136 0001639  38.7829  52.9177 15.47471176  3690,6802.264,93.055,425.244,423.014,0.0
50156.0,STARLINK-3317,PAYLOAD,2022-02-24 14:00:01,15.46734957,0.0001621,53.2173,31.1427,46.5296,160.3036,-0.011098,-0.00527922,0.0,0 STARLINK-3317,1 50156U 21125A   22055.58334491 -.00527922  00000-0 -11098-1 0  9998,2 50156  53.2173  31.1427 0001621  46.5296 160.3036 15.46734957  3676,6804.422,93.099,427.39,425.184,0.0
50156.0,STARLINK-3317,PAYLOAD,2022-02-24 22:00:00,15.46364445,0.0001704,53.2174,29.5568,41.6156,222.1203,-0.011151,-0.00523946,0.0,0 STARLINK-3317,1 50156U 21125A   22055.91667824 -.00523946  00000-0 -11151-1 0  9996,2 50156  53.2174  29.5568 0001704  41.6156 222.1203 15.46364445  3660,6805.509,93.122,428.534,426.214,0.0
50156.0,STARLINK-3317,PAYLOAD,2022-02-25 06:00:00,15.45996972,0.0001751,53.2174,27.9753,37.1284,283.0646,-0.011379,-0.00527655,0.0,0 STARLINK-3317,1 50156U 21125A   22056.25001157 -.00527655  00000-0 -11379-1 0  9998,2 50156  53.2174  27.9753 0001751  37.1284 283.0646 15.45996972 13610,6806.587,93.144,429.644,427.26,0.0
50156.0,STARLINK-3317,PAYLOAD,2022-02-25 14:00:01,15.45627699,0.0001416999999999,53.2175,26.3913,44.7666,331.4425,-0.011507,-0.00526851,0.0,0 STARLINK-3317,1 50156U 21125A   22056.58334491 -.00526851  00000-0 -11507-1 0  9994,2 50156  53.2175  26.3913 0001417  44.7666 331.4425 15.45627699  3674,6807.670999999999,93.166,430.501,428.572,0.0
50156.0,STARLINK-3317,PAYLOAD,2022-02-25 22:00:00,15.4525722,0.0001665999999999,53.2175,24.8084,37.2353,34.5466,-0.011576,-0.00523544,0.0,0 STARLINK-3317,1 50156U 21125A   22056.91667824 -.00523544  00000-0 -11576-1 0  9992,2 50156  53.2175  24.8084 0001666  37.2353  34.5466 15.45257220  3677,6808.759,93.188,431.759,429.49,0.0
50156.0,STARLINK-3317,PAYLOAD,2022-02-26 14:00:01,15.44521499,0.0001727,53.2174,21.6477,41.2416,140.3533,-0.011971,-0.00527646,0.0,0 STARLINK-3317,1 50156U 21125A   22057.58334491 -.00527646  00000-0 -11971-1 0  9993,2 50156  53.2174  21.6477 0001727  41.2416 140.3533 15.44521499 13820,6810.920999999999,93.233,433.963,431.61,0.0
50156.0,STARLINK-3317,PAYLOAD,2022-02-26 22:00:00,15.44151402,0.0001858,53.2176,20.0677,38.3963,197.4411,-0.012043,-0.00524388,0.0,0 STARLINK-3317,1 50156U 21125A   22057.91667824 -.00524388  00000-0 -12043-1 0  9990,2 50156  53.2176  20.0677 0001858  38.3963 197.4411 15.44151402  3680,6812.01,93.255,435.14,432.609,0.0
50156.0,STARLINK-3317,PAYLOAD,2022-02-27 14:00:01,15.43414757,0.0001543,53.2175,16.9121,41.84,301.1516,-0.01244,-0.00527984,0.0,0 STARLINK-3317,1 50156U 21125A   22058.58334491 -.00527984  00000-0 -12440-1 0  9991,2 50156  53.2175  16.9121 0001543  41.8400 301.1516 15.43414757  3676,6814.177,93.3,437.093,434.991,0.0
50156.0,STARLINK-3317,PAYLOAD,2022-02-27 22:00:00,15.43044356,0.0001807,53.2176,15.3351,32.234,3.6703,-0.01251,-0.0052459,0.0,0 STARLINK-3317,1 50156U 21125A   22058.91667824 -.00524590  00000-0 -12510-1 0  9995,2 50156  53.2176  15.3351 0001807  32.2340   3.6703 15.43044356 14022,6815.267,93.322,438.364,435.901,0.0
50156.0,STARLINK-3317,PAYLOAD,2022-02-28 14:00:01,15.42306872,0.000171,53.2173,12.1846,38.8681,101.5304,-0.012847,-0.00525406,0.0,0 STARLINK-3317,1 50156U 21125A   22059.58334491 -.00525406  00000-0 -12847-1 0  9990,2 50156  53.2173  12.1846 0001710  38.8681 101.5304 15.42306872  3673,6817.44,93.367,440.471,438.139,0.0
50156.0,STARLINK-3317,PAYLOAD,2022-02-28 22:00:00,15.41937018,0.0001943,53.2175,10.6102,36.1926,155.7886,-0.012953,-0.00523356,0.0,0 STARLINK-3317,1 50156U 21125A   22059.91667824 -.00523356  00000-0 -12953-1 0  9996,2 50156  53.2175  10.6102 0001943  36.1926 155.7886 15.41937018  3671,6818.53,93.389,441.72,439.07,0.0
50156.0,STARLINK-3317,PAYLOAD,2022-03-01 06:00:00,15.41567241,0.0001876,53.2174,9.0388,38.7378,204.3817,-0.013084,-0.00522202,0.0,0 STARLINK-3317,1 50156U 21125A   22060.25001157 -.00522202  00000-0 -13084-1 0  9991,2 50156  53.2174   9.0388 0001876  38.7378 204.3817 15.41567241 14238,6819.62,93.411,442.765,440.206,0.0
50156.0,STARLINK-3317,PAYLOAD,2022-03-01 14:00:01,15.41201715,0.0001571,53.2175,7.4648,44.755,249.0602,-0.013414,-0.00528402,0.0,0 STARLINK-3317,1 50156U 21125A   22060.58334491 -.00528402  00000-0 -13414-1 0  9992,2 50156  53.2175   7.4648 0001571  44.7550 249.0602 15.41201715  3665,6820.698,93.434,443.635,441.492,0.0
50156.0,STARLINK-3317,PAYLOAD,2022-03-01 22:00:01,15.40831894,0.0001774,53.2176,5.8932,35.4452,308.6869,-0.01352,-0.00526214,0.0,0 STARLINK-3317,1 50156U 21125A   22060.91668981 -.00526214  00000-0 -13520-1 0  9990,2 50156  53.2176   5.8932 0001774  35.4452 308.6869 15.40831894  3682,6821.79,93.456,444.865,442.445,0.0
50156.0,STARLINK-3317,PAYLOAD,2022-03-02 14:00:01,15.40092392,0.0001617,53.2175,2.7531,38.5356,44.7079,-0.013792,-0.00523901,0.0,0 STARLINK-3317,1 50156U 21125A   22061.58334491 -.00523901  00000-0 -13792-1 0  9991,2 50156  53.2175   2.7531 0001617  38.5356  44.7079 15.40092392 14444,6823.973000000001,93.501,446.942,444.735,0.0
50156.0,STARLINK-3317,PAYLOAD,2022-03-02 22:00:00,15.39723769,0.0001903,53.2176,1.1843,33.9246,98.2414,-0.013971,-0.00524263,0.0,0 STARLINK-3317,1 50156U 21125A   22061.91667824 -.00524263  00000-0 -13971-1 0  9998,2 50156  53.2176   1.1843 0001903  33.9246  98.2414 15.39723769  3665,6825.062,93.523,448.226,445.629,0.0
50156.0,STARLINK-3317,PAYLOAD,2022-03-03 14:00:01,15.38986034,0.0001795,53.2176,358.0490000000001,39.0233,189.6579,-0.014309,-0.00524032,0.0,0 STARLINK-3317,1 50156U 21125A   22062.58334491 -.00524032  00000-0 -14309-1 0  9993,2 50156  53.2176 358.0490 0001795  39.0233 189.6579 15.38986034  3672,6827.243,93.568,450.334,447.883,0.0
50156.0,STARLINK-3317,PAYLOAD,2022-03-03 22:00:00,15.38617297,0.0001884,53.2177,356.4831,35.6664,240.6072,-0.014493,-0.00524359,0.0,0 STARLINK-3317,1 50156U 21125A   22062.91667824 -.00524359  00000-0 -14493-1 0  9995,2 50156  53.2177 356.4831 0001884  35.6664 240.6072 15.38617297 14640,6828.334,93.591,451.486,448.913,0.0
50156.0,STARLINK-3317,PAYLOAD,2022-03-04 14:00:01,15.37878966,0.000165,53.2176,353.353,36.583,333.6108,-0.01484,-0.00524074,0.0,0 STARLINK-3317,1 50156U 21125A   22063.58335648 -.00524074  00000-0 -14840-1 0  9995,2 50156  53.2176 353.3530 0001650  36.5830 333.6108 15.37878966  3672,6830.52,93.635,453.512,451.257,0.0
50156.0,STARLINK-3317,PAYLOAD,2022-03-04 22:00:00,15.37511812,0.0001921,53.2177,351.7901,29.7801,26.6113,-0.015107,-0.00526972,0.0,0 STARLINK-3317,1 50156U 21125A   22063.91667824 -.00526972  00000-0 -15107-1 0  9992,2 50156  53.2177 351.7901 0001921  29.7801  26.6113 15.37511812  3668,6831.607,93.658,454.784,452.16,0.0
50156.0,STARLINK-3317,PAYLOAD,2022-03-05 06:00:00,15.37137929,0.0002083,53.2174,350.2286,28.1898,74.0221,-0.015024,-0.00518341,0.0,0 STARLINK-3317,1 50156U 21125A   22064.25001157 -.00518341  00000-0 -15024-1 0  9990,2 50156  53.2174 350.2286 0002083  28.1898  74.0221 15.37137929 14857,6832.715,93.681,456.003,453.156,0.0
50156.0,STARLINK-3317,PAYLOAD,2022-03-05 14:00:01,15.3677081,0.0001848,53.2174,348.665,35.048,112.5405,-0.0152919999999999,-0.00521116,0.0,0 STARLINK-3317,1 50156U 21125A   22064.58334491 -.00521116  00000-0 -15292-1 0  9997,2 50156  53.2174 348.6650 0001848  35.0480 112.5405 15.36770810  3643,6833.803000000001,93.703,456.931,454.405,0.0
50156.0,STARLINK-3317,PAYLOAD,2022-03-05 22:00:01,15.36403031,0.0002039,53.2177,347.1046,33.6369,158.9479,-0.0155449999999999,-0.00523327,0.0,0 STARLINK-3317,1 50156U 21125A   22064.91668981 -.00523327  00000-0 -15545-1 0  9995,2 50156  53.2177 347.1046 0002039  33.6369 158.9479 15.36403031  3678,6834.893,93.725,458.152,455.365,0.0
50156.0,STARLINK-3317,PAYLOAD,2022-03-06 06:00:00,15.3603145,0.0001761,53.2173,345.5457,41.8379,195.1725,-0.01557,-0.0051823,0.0,0 STARLINK-3317,1 50156U 21125A   22065.25001157 -.00518230  00000-0 -15570-1 0  9994,2 50156  53.2173 345.5457 0001761  41.8379 195.1725 15.36031450 15004,6835.996,93.748,459.064,456.657,0.0
